[{"OBJECT_NAME":"FLORIPASAT-1","OBJECT_ID":"2019-093G","EPOCH":"2026-03-09T23:35:55.317696","MEAN_MOTION":15.02721611,"ECCENTRICITY":0.00131238,"INCLINATION":97.7908,"RA_OF_ASC_NODE":162.596,"ARG_OF_PERICENTER":52.6692,"MEAN_ANOMALY":307.5727,"EPHEMERIS_TYPE":0,"CLASSIFICATION_TYPE":"U","NORAD_CAT_ID":44885,"ELEMENT_SET_NO":999,"REV_AT_EPOCH":33774,"BSTAR":0.00066057159,"MEAN_MOTION_DOT":8.782e-5,"MEAN_MOTION_DDOT":0},{"OBJECT_NAME":"STARLINK-5868","OBJECT_ID":"2023-064AM","EPOCH":"2026-03-09T13:49:59.093760","MEAN_MOTION":14.98329823,"ECCENTRICITY":0.0003085,"INCLINATION":69.9998,"RA_OF_ASC_NODE":124.6886,"ARG_OF_PERICENTER":262.6495,"MEAN_ANOMALY":97.4314,"EPHEMERIS_TYPE":0,"CLASSIFICATION_TYPE":"U","NORAD_CAT_ID":56483,"ELEMENT_SET_NO":999,"REV_AT_EPOCH":15572,"BSTAR":-1.2666e-5,"MEAN_MOTION_DOT":-2.44e-6,"MEAN_MOTION_DDOT":0}]
